{
  "type": "FeatureCollection",
  "features": [
    {
      "type": "Feature",
      "properties": {
        "norad_id": 36668,
        "name": "FENGYUN 1C DEB",
        "group": "fengyun-1c-debris",
        "lat": -13.105847553482548,
        "lon": -171.94686483498296,
        "alt_km": 808.3364256354425,
        "timestamp": "2025-12-26T03:50:12.381990+00:00",
        "meta_object_name": "FENGYUN 1C DEB",
        "meta_object_id": "1999-025DYN",
        "meta_epoch": "2025-12-25T06:34:05.412864",
        "meta_mean_motion": 14.15422045,
        "meta_eccentricity": 0.0051464,
        "meta_inclination": 98.6094,
        "meta_ra_of_asc_node": 9.2188,
        "meta_arg_of_pericenter": 190.1122,
        "meta_mean_anomaly": 169.9022,
        "meta_ephemeris_type": 0,
        "meta_classification_type": "U",
        "meta_norad_cat_id": 36668,
        "meta_element_set_no": 999,
        "meta_rev_at_epoch": 57595,
        "meta_bstar": 0.00055657,
        "meta_mean_motion_dot": 1.058e-05,
        "meta_mean_motion_ddot": 0,
        "tle_line1": "1 36668U 99025DYN 25359.27367376  .00001058  00000+0  55657-3 0  9993",
        "tle_line2": "2 36668  98.6094   9.2188 0051464 190.1122 169.9022 14.15422045575959"
      },
      "geometry": {
        "type": "Point",
        "coordinates": [
          -171.94686483498296,
          -13.105847553482548
        ]
      }
    },
    {
      "type": "Feature",
      "properties": {
        "norad_id": 36676,
        "name": "FENGYUN 1C DEB",
        "group": "fengyun-1c-debris",
        "lat": 6.725045252015974,
        "lon": 81.08055201496293,
        "alt_km": 739.0989604469414,
        "timestamp": "2025-12-26T03:50:12.382001+00:00",
        "meta_object_name": "FENGYUN 1C DEB",
        "meta_object_id": "1999-025DYW",
        "meta_epoch": "2025-12-12T12:03:08.237952",
        "meta_mean_motion": 14.43199836,
        "meta_eccentricity": 0.00955768,
        "meta_inclination": 98.7673,
        "meta_ra_of_asc_node": 245.9859,
        "meta_arg_of_pericenter": 132.3194,
        "meta_mean_anomaly": 40.1509,
        "meta_ephemeris_type": 0,
        "meta_classification_type": "U",
        "meta_norad_cat_id": 36676,
        "meta_element_set_no": 999,
        "meta_rev_at_epoch": 65062,
        "meta_bstar": 0.00064689298,
        "meta_mean_motion_dot": 2.25e-05,
        "meta_mean_motion_ddot": 0,
        "tle_line1": "1 36676U 99025DYW 25346.50217868  .00002250  00000+0  64689-3 0  9994",
        "tle_line2": "2 36676  98.7673 245.9859 0095576 132.3194  40.1509 14.43199836650623"
      },
      "geometry": {
        "type": "Point",
        "coordinates": [
          81.08055201496293,
          6.725045252015974
        ]
      }
    },
    {
      "type": "Feature",
      "properties": {
        "norad_id": 36678,
        "name": "FENGYUN 1C DEB",
        "group": "fengyun-1c-debris",
        "lat": -73.86984548151756,
        "lon": 12.333305620091961,
        "alt_km": 676.362080893563,
        "timestamp": "2025-12-26T03:50:12.382013+00:00",
        "meta_object_name": "FENGYUN 1C DEB",
        "meta_object_id": "1999-025DYY",
        "meta_epoch": "2025-11-26T04:26:16.761408",
        "meta_mean_motion": 14.37944691,
        "meta_eccentricity": 0.01523469,
        "meta_inclination": 98.2901,
        "meta_ra_of_asc_node": 313.1233,
        "meta_arg_of_pericenter": 42.409,
        "meta_mean_anomaly": 318.8754,
        "meta_ephemeris_type": 0,
        "meta_classification_type": "U",
        "meta_norad_cat_id": 36678,
        "meta_element_set_no": 999,
        "meta_rev_at_epoch": 64751,
        "meta_bstar": 0.00045851479,
        "meta_mean_motion_dot": 1.539e-05,
        "meta_mean_motion_ddot": 0,
        "tle_line1": "1 36678U 99025DYY 25330.18491622  .00001539  00000+0  45851-3 0  9994",
        "tle_line2": "2 36678  98.2901 313.1233 0152346  42.4090 318.8754 14.37944691647514"
      },
      "geometry": {
        "type": "Point",
        "coordinates": [
          12.333305620091961,
          -73.86984548151756
        ]
      }
    },
    {
      "type": "Feature",
      "properties": {
        "norad_id": 36679,
        "name": "FENGYUN 1C DEB",
        "group": "fengyun-1c-debris",
        "lat": -69.45858991367291,
        "lon": 20.454367398360006,
        "alt_km": 922.3750412328145,
        "timestamp": "2025-12-26T03:50:12.382023+00:00",
        "meta_object_name": "FENGYUN 1C DEB",
        "meta_object_id": "1999-025DYZ",
        "meta_epoch": "2025-12-12T05:06:20.489760",
        "meta_mean_motion": 14.04635854,
        "meta_eccentricity": 0.00860329,
        "meta_inclination": 98.8358,
        "meta_ra_of_asc_node": 342.3526,
        "meta_arg_of_pericenter": 94.9778,
        "meta_mean_anomaly": 266.1218,
        "meta_ephemeris_type": 0,
        "meta_classification_type": "U",
        "meta_norad_cat_id": 36679,
        "meta_element_set_no": 999,
        "meta_rev_at_epoch": 24541,
        "meta_bstar": 0.00093240851,
        "meta_mean_motion_dot": 1.499e-05,
        "meta_mean_motion_ddot": 0,
        "tle_line1": "1 36679U 99025DYZ 25346.21273715  .00001499  00000+0  93241-3 0  9998",
        "tle_line2": "2 36679  98.8358 342.3526 0086032  94.9778 266.1218 14.04635854245414"
      },
      "geometry": {
        "type": "Point",
        "coordinates": [
          20.454367398360006,
          -69.45858991367291
        ]
      }
    },
    {
      "type": "Feature",
      "properties": {
        "norad_id": 36680,
        "name": "FENGYUN 1C DEB",
        "group": "fengyun-1c-debris",
        "lat": -30.893301405602074,
        "lon": 166.6444259469177,
        "alt_km": 699.8336137418646,
        "timestamp": "2025-12-26T03:50:12.382038+00:00",
        "meta_object_name": "FENGYUN 1C DEB",
        "meta_object_id": "1999-025DZA",
        "meta_epoch": "2025-12-23T18:07:04.032192",
        "meta_mean_motion": 14.18654339,
        "meta_eccentricity": 0.01886855,
        "meta_inclination": 98.5488,
        "meta_ra_of_asc_node": 349.4883,
        "meta_arg_of_pericenter": 217.4183,
        "meta_mean_anomaly": 318.1654,
        "meta_ephemeris_type": 0,
        "meta_classification_type": "U",
        "meta_norad_cat_id": 36680,
        "meta_element_set_no": 999,
        "meta_rev_at_epoch": 64453,
        "meta_bstar": 0.00036697665,
        "meta_mean_motion_dot": 8.63e-06,
        "meta_mean_motion_ddot": 0,
        "tle_line1": "1 36680U 99025DZA 25357.75490778  .00000863  00000+0  36698-3 0  9998",
        "tle_line2": "2 36680  98.5488 349.4883 0188685 217.4183 318.1654 14.18654339644532"
      },
      "geometry": {
        "type": "Point",
        "coordinates": [
          166.6444259469177,
          -30.893301405602074
        ]
      }
    },
    {
      "type": "Feature",
      "properties": {
        "norad_id": 36681,
        "name": "FENGYUN 1C DEB",
        "group": "fengyun-1c-debris",
        "lat": 8.277939674141008,
        "lon": -2.9377676659135514,
        "alt_km": 842.6808475841899,
        "timestamp": "2025-12-26T03:50:12.382048+00:00",
        "meta_object_name": "FENGYUN 1C DEB",
        "meta_object_id": "1999-025DZB",
        "meta_epoch": "2025-12-24T17:44:34.713888",
        "meta_mean_motion": 14.10290553,
        "meta_eccentricity": 0.00442192,
        "meta_inclination": 98.6983,
        "meta_ra_of_asc_node": 356.9645,
        "meta_arg_of_pericenter": 315.3394,
        "meta_mean_anomaly": 44.4218,
        "meta_ephemeris_type": 0,
        "meta_classification_type": "U",
        "meta_norad_cat_id": 36681,
        "meta_element_set_no": 999,
        "meta_rev_at_epoch": 72927,
        "meta_bstar": 0.00058901121,
        "meta_mean_motion_dot": 1.011e-05,
        "meta_mean_motion_ddot": 0,
        "tle_line1": "1 36681U 99025DZB 25358.73929067  .00001011  00000+0  58901-3 0  9993",
        "tle_line2": "2 36681  98.6983 356.9645 0044219 315.3394  44.4218 14.10290553729275"
      },
      "geometry": {
        "type": "Point",
        "coordinates": [
          -2.9377676659135514,
          8.277939674141008
        ]
      }
    },
    {
      "type": "Feature",
      "properties": {
        "norad_id": 36682,
        "name": "FENGYUN 1C DEB",
        "group": "fengyun-1c-debris",
        "lat": 81.50498141604476,
        "lon": 174.26369429098153,
        "alt_km": 1141.7299100573,
        "timestamp": "2025-12-26T03:50:12.382058+00:00",
        "meta_object_name": "FENGYUN 1C DEB",
        "meta_object_id": "1999-025DZC",
        "meta_epoch": "2025-12-24T04:03:46.568736",
        "meta_mean_motion": 13.70158625,
        "meta_eccentricity": 0.02326677,
        "meta_inclination": 98.4855,
        "meta_ra_of_asc_node": 260.6406,
        "meta_arg_of_pericenter": 246.7187,
        "meta_mean_anomaly": 110.9319,
        "meta_ephemeris_type": 0,
        "meta_classification_type": "U",
        "meta_norad_cat_id": 36682,
        "meta_element_set_no": 999,
        "meta_rev_at_epoch": 61549,
        "meta_bstar": 0.0009036125,
        "meta_mean_motion_dot": 9.25e-06,
        "meta_mean_motion_ddot": 0,
        "tle_line1": "1 36682U 99025DZC 25358.16928899  .00000925  00000+0  90361-3 0  9992",
        "tle_line2": "2 36682  98.4855 260.6406 0232667 246.7187 110.9319 13.70158625615498"
      },
      "geometry": {
        "type": "Point",
        "coordinates": [
          174.26369429098153,
          81.50498141604476
        ]
      }
    }
  ]
}